0 VANGUARD 1
1     5U 58002B   25008.43610733  .00000542  00000-0  66088-3 0  9994
2     5  34.2564 133.9670 1843128 292.5079  49.1051 10.85844189386321